GLOBALSTAR M001 [-]     
1 25162U 98008A   24048.42036190 -.00000026  00000+0  53810-3 0  9992
2 25162  52.0047 307.0500 0001454 338.0812 193.9636 12.38177933183643
GLOBALSTAR M004 [-]     
1 25163U 98008B   24047.53866434 -.00000084  00000+0  10898-3 0  9999
2 25163  51.9992  98.7504 0002516 285.9736 221.5126 12.63350368200177
GLOBALSTAR M002 [-]     
1 25164U 98008C   24047.93903957 -.00000060  00000+0  32215-3 0  9997
2 25164  52.0042  19.3779 0001373 341.0894  18.9875 11.61497650127561
GLOBALSTAR M003 [-]     
1 25165U 98008D   24048.04594369  .00000018  00000+0  11445-2 0  9997
2 25165  51.9820  74.9837 0007945  37.5230 340.8465 12.11978050174364
GLOBALSTAR M014 [-]     
1 25306U 98023A   24047.92979826 -.00000057  00000+0  38734-3 0  9997
2 25306  51.9859 312.8520 0000685 135.0728 307.2358 11.65464634134478
GLOBALSTAR M006 [-]     
1 25307U 98023B   24047.97207885 -.00000065  00000+0  22090-3 0  9999
2 25307  51.9974 347.0440 0003763 321.9863 115.1308 11.58156367160499
GLOBALSTAR M015 [-]     
1 25308U 98023C   24048.28429506 -.00000123  00000+0 -11327-2 0  9997
2 25308  51.9828  62.4668 0012329 289.7159  82.9374 11.48855987138600
GLOBALSTAR M008 [-]     
1 25309U 98023D   24048.48525227 -.00000082  00000+0  10869-3 0  9991
2 25309  51.9958 166.1874 0002267 211.3372 227.1198 12.36036317178094
